start=new Date('2022-12-01T00:00:00.000Z').valueOf();
sats=[{"MEAN_MOTION":"15.08821132","PERIAPSIS":"538.564","RCS_SIZE":"LARGE","FILE":"3676429","TLE_LINE1":"1 53824U 22114G   22334.91667824  .00042987  00000-0  27040-2 0  9994","GP_ID":"219218802","TLE_LINE2":"2 53824  53.2159 267.7606 0001791  47.0954 175.0705 15.08821132  1300","BSTAR":"0.00270400000000","MEAN_MOTION_DOT":"0.00042987","ARG_OF_PERICENTER":"47.0954","EPHEMERIS_TYPE":"0","MEAN_ELEMENT_THEORY":"SGP4","LAUNCH_DATE":"2022-09-19","DECAY_DATE":null,"SITE":"AFETR","ECCENTRICITY":"0.00017910","INCLINATION":"53.2159","OBJECT_ID":"2022-114G","COUNTRY_CODE":"US","OBJECT_NAME":"STARLINK-4757","MEAN_ANOMALY":"175.0705","RA_OF_ASC_NODE":"267.7606","CENTER_NAME":"EARTH","TIME_SYSTEM":"UTC","REV_AT_EPOCH":"130","PERIOD":"95.439","EPOCH":"2022-11-30T22:00:00.999936","APOAPSIS":"541.042","MEAN_MOTION_DDOT":"0.0000000000000","SEMIMAJOR_AXIS":"6917.938","REF_FRAME":"TEME","OBJECT_TYPE":"PAYLOAD","ELEMENT_SET_NO":"999","NORAD_CAT_ID":"53824","CLASSIFICATION_TYPE":"U"},{"MEAN_MOTION":"15.08832838","PERIAPSIS":"538.654","FILE":"3676429","RCS_SIZE":"LARGE","TLE_LINE1":"1 53825U 22114H   22334.91667824  .00017244  00000-0  10991-2 0  9990","GP_ID":"219217935","MEAN_MOTION_DOT":"0.00017244","ARG_OF_PERICENTER":"62.9394","BSTAR":"0.00109910000000","TLE_LINE2":"2 53825  53.2157 267.7961 0001609  62.9394 139.2072 15.08832838  1309","MEAN_ELEMENT_THEORY":"SGP4","EPHEMERIS_TYPE":"0","DECAY_DATE":null,"LAUNCH_DATE":"2022-09-19","ECCENTRICITY":"0.00016090","SITE":"AFETR","INCLINATION":"53.2157","COUNTRY_CODE":"US","OBJECT_ID":"2022-114H","OBJECT_NAME":"STARLINK-4751","MEAN_ANOMALY":"139.2072","RA_OF_ASC_NODE":"267.7961","CENTER_NAME":"EARTH","TIME_SYSTEM":"UTC","PERIOD":"95.438","REV_AT_EPOCH":"130","EPOCH":"2022-11-30T22:00:00.999936","SEMIMAJOR_AXIS":"6917.902","MEAN_MOTION_DDOT":"0.0000000000000","APOAPSIS":"540.880","NORAD_CAT_ID":"53825","ELEMENT_SET_NO":"999","REF_FRAME":"TEME","OBJECT_TYPE":"PAYLOAD","CLASSIFICATION_TYPE":"U"},{"EPHEMERIS_TYPE":"0","MEAN_ELEMENT_THEORY":"SGP4","TLE_LINE2":"2 53826  53.2165 267.6006 0001533  61.7833 240.4952 15.08852003  1307","MEAN_MOTION_DOT":"-0.00021583","BSTAR":"-0.00134160000000","ARG_OF_PERICENTER":"61.7833","SITE":"AFETR","ECCENTRICITY":"0.00015330","LAUNCH_DATE":"2022-09-19","DECAY_DATE":null,"PERIAPSIS":"538.648","MEAN_MOTION":"15.08852003","GP_ID":"219218467","TLE_LINE1":"1 53826U 22114J   22334.91667824 -.00021583  00000-0 -13416-2 0  9999","FILE":"3676429","RCS_SIZE":"LARGE","APOAPSIS":"540.769","MEAN_MOTION_DDOT":"0.0000000000000","SEMIMAJOR_AXIS":"6917.844","EPOCH":"2022-11-30T22:00:00.999936","CLASSIFICATION_TYPE":"U","REF_FRAME":"TEME","OBJECT_TYPE":"PAYLOAD","NORAD_CAT_ID":"53826","ELEMENT_SET_NO":"999","OBJECT_NAME":"STARLINK-4756","OBJECT_ID":"2022-114J","COUNTRY_CODE":"US","INCLINATION":"53.2165","REV_AT_EPOCH":"130","PERIOD":"95.437","TIME_SYSTEM":"UTC","RA_OF_ASC_NODE":"267.6006","CENTER_NAME":"EARTH","MEAN_ANOMALY":"240.4952"},{"OBJECT_NAME":"STARLINK-4764","INCLINATION":"53.2161","COUNTRY_CODE":"US","OBJECT_ID":"2022-114K","RA_OF_ASC_NODE":"267.7166","TIME_SYSTEM":"UTC","CENTER_NAME":"EARTH","PERIOD":"95.435","REV_AT_EPOCH":"130","MEAN_ANOMALY":"161.4944","APOAPSIS":"540.661","SEMIMAJOR_AXIS":"6917.752","MEAN_MOTION_DDOT":"0.0000000000000","EPOCH":"2022-11-30T22:00:00.999936","CLASSIFICATION_TYPE":"U","OBJECT_TYPE":"PAYLOAD","REF_FRAME":"TEME","NORAD_CAT_ID":"53827","ELEMENT_SET_NO":"999","PERIAPSIS":"538.573","MEAN_MOTION":"15.08881990","GP_ID":"219218976","TLE_LINE1":"1 53827U 22114K   22334.91667824 -.00108012  00000-0 -68636-2 0  9997","RCS_SIZE":"LARGE","FILE":"3676429","EPHEMERIS_TYPE":"0","MEAN_ELEMENT_THEORY":"SGP4","TLE_LINE2":"2 53827  53.2161 267.7166 0001509  80.7311 161.4944 15.08881990  1307","MEAN_MOTION_DOT":"-0.00108012","ARG_OF_PERICENTER":"80.7311","BSTAR":"-0.00686360000000","SITE":"AFETR","ECCENTRICITY":"0.00015090","LAUNCH_DATE":"2022-09-19","DECAY_DATE":null},{"APOAPSIS":"540.909","SEMIMAJOR_AXIS":"6917.831","MEAN_MOTION_DDOT":"0.0000000000000","EPOCH":"2022-11-30T22:00:00.999936","CLASSIFICATION_TYPE":"U","REF_FRAME":"TEME","OBJECT_TYPE":"PAYLOAD","NORAD_CAT_ID":"53828","ELEMENT_SET_NO":"999","OBJECT_NAME":"STARLINK-4760","INCLINATION":"53.2159","OBJECT_ID":"2022-114L","COUNTRY_CODE":"US","RA_OF_ASC_NODE":"267.5609","TIME_SYSTEM":"UTC","CENTER_NAME":"EARTH","REV_AT_EPOCH":"130","PERIOD":"95.437","MEAN_ANOMALY":"274.7406","EPHEMERIS_TYPE":"0","MEAN_ELEMENT_THEORY":"SGP4","TLE_LINE2":"2 53828  53.2159 267.5609 0001754  47.5405 274.7406 15.08856222  1303","MEAN_MOTION_DOT":"-0.00004263","ARG_OF_PERICENTER":"47.5405","BSTAR":"-0.00024978000000","SITE":"AFETR","ECCENTRICITY":"0.00017540","LAUNCH_DATE":"2022-09-19","DECAY_DATE":null,"PERIAPSIS":"538.482","MEAN_MOTION":"15.08856222","TLE_LINE1":"1 53828U 22114L   22334.91667824 -.00004263  00000-0 -24978-3 0  9993","GP_ID":"219219138","RCS_SIZE":"LARGE","FILE":"3676429"},{"EPOCH":"2022-11-30T22:00:00.999936","MEAN_MOTION_DDOT":"0.0000000000000","SEMIMAJOR_AXIS":"6917.958","APOAPSIS":"540.923","NORAD_CAT_ID":"53829","ELEMENT_SET_NO":"999","REF_FRAME":"TEME","OBJECT_TYPE":"PAYLOAD","CLASSIFICATION_TYPE":"U","INCLINATION":"53.2155","OBJECT_ID":"2022-114M","COUNTRY_CODE":"US","OBJECT_NAME":"STARLINK-4759","MEAN_ANOMALY":"187.4893","RA_OF_ASC_NODE":"267.6819","CENTER_NAME":"EARTH","TIME_SYSTEM":"UTC","REV_AT_EPOCH":"130","PERIOD":"95.439","ARG_OF_PERICENTER":"74.7351","MEAN_MOTION_DOT":"0.00048583","BSTAR":"0.00305180000000","TLE_LINE2":"2 53829  53.2155 267.6819 0001590  74.7351 187.4893 15.08814656  1309","MEAN_ELEMENT_THEORY":"SGP4","EPHEMERIS_TYPE":"0","DECAY_DATE":null,"LAUNCH_DATE":"2022-09-19","ECCENTRICITY":"0.00015900","SITE":"AFETR","MEAN_MOTION":"15.08814656","PERIAPSIS":"538.723","FILE":"3676429","RCS_SIZE":"LARGE","TLE_LINE1":"1 53829U 22114M   22334.91667824  .00048583  00000-0  30518-2 0  9991","GP_ID":"219218295"},{"GP_ID":"219218109","TLE_LINE1":"1 53830U 22114N   22334.91667824 -.00033594  00000-0 -21019-2 0  9997","FILE":"3676429","RCS_SIZE":"LARGE","PERIAPSIS":"538.568","MEAN_MOTION":"15.08850505","ECCENTRICITY":"0.00016560","SITE":"AFETR","DECAY_DATE":null,"LAUNCH_DATE":"2022-09-19","MEAN_ELEMENT_THEORY":"SGP4","EPHEMERIS_TYPE":"0","MEAN_MOTION_DOT":"-0.00033594","BSTAR":"-0.00210190000000","ARG_OF_PERICENTER":"45.7578","TLE_LINE2":"2 53830  53.2159 267.4832 0001656  45.7578 316.6061 15.08850505  1306","PERIOD":"95.437","REV_AT_EPOCH":"130","RA_OF_ASC_NODE":"267.4832","TIME_SYSTEM":"UTC","CENTER_NAME":"EARTH","MEAN_ANOMALY":"316.6061","OBJECT_NAME":"STARLINK-4761","OBJECT_ID":"2022-114N","COUNTRY_CODE":"US","INCLINATION":"53.2159","CLASSIFICATION_TYPE":"U","NORAD_CAT_ID":"53830","ELEMENT_SET_NO":"999","OBJECT_TYPE":"PAYLOAD","REF_FRAME":"TEME","MEAN_MOTION_DDOT":"0.0000000000000","SEMIMAJOR_AXIS":"6917.848","APOAPSIS":"540.859","EPOCH":"2022-11-30T22:00:00.999936"},{"FILE":"3676429","RCS_SIZE":"LARGE","TLE_LINE1":"1 53831U 22114P   22334.91667824 -.00081624  00000-0 -51644-2 0  9992","GP_ID":"219218641","MEAN_MOTION":"15.08873221","PERIAPSIS":"538.522","LAUNCH_DATE":"2022-09-19","DECAY_DATE":null,"SITE":"AFETR","ECCENTRICITY":"0.00016220","TLE_LINE2":"2 53831  53.2159 267.6400 0001622  54.7920 227.4811 15.08873221  1306","BSTAR":"-0.00516440000000","MEAN_MOTION_DOT":"-0.00081624","ARG_OF_PERICENTER":"54.7920","EPHEMERIS_TYPE":"0","MEAN_ELEMENT_THEORY":"SGP4","MEAN_ANOMALY":"227.4811","RA_OF_ASC_NODE":"267.6400","TIME_SYSTEM":"UTC","CENTER_NAME":"EARTH","REV_AT_EPOCH":"130","PERIOD":"95.435","INCLINATION":"53.2159","OBJECT_ID":"2022-114P","COUNTRY_CODE":"US","OBJECT_NAME":"STARLINK-4649","REF_FRAME":"TEME","OBJECT_TYPE":"PAYLOAD","NORAD_CAT_ID":"53831","ELEMENT_SET_NO":"999","CLASSIFICATION_TYPE":"U","EPOCH":"2022-11-30T22:00:00.999936","APOAPSIS":"540.766","SEMIMAJOR_AXIS":"6917.779","MEAN_MOTION_DDOT":"0.0000000000000"},{"COUNTRY_CODE":"US","OBJECT_ID":"2022-114Q","INCLINATION":"53.2164","OBJECT_NAME":"STARLINK-4747","MEAN_ANOMALY":"354.4166","REV_AT_EPOCH":"130","PERIOD":"95.436","CENTER_NAME":"EARTH","RA_OF_ASC_NODE":"267.4048","TIME_SYSTEM":"UTC","EPOCH":"2022-11-30T22:00:00.999936","MEAN_MOTION_DDOT":"0.0000000000000","SEMIMAJOR_AXIS":"6917.821","APOAPSIS":"540.888","NORAD_CAT_ID":"53832","ELEMENT_SET_NO":"999","REF_FRAME":"TEME","OBJECT_TYPE":"PAYLOAD","CLASSIFICATION_TYPE":"U","MEAN_MOTION":"15.08859573","PERIAPSIS":"538.483","FILE":"3676429","RCS_SIZE":"LARGE","TLE_LINE1":"1 53832U 22114Q   22334.91667824 -.00045819  00000-0 -28776-2 0  9999","GP_ID":"219218803","MEAN_MOTION_DOT":"-0.00045819","BSTAR":"-0.00287760000000","ARG_OF_PERICENTER":"48.0000","TLE_LINE2":"2 53832  53.2164 267.4048 0001738  48.0000 354.4166 15.08859573  1300","MEAN_ELEMENT_THEORY":"SGP4","EPHEMERIS_TYPE":"0","DECAY_DATE":null,"LAUNCH_DATE":"2022-09-19","ECCENTRICITY":"0.00017380","SITE":"AFETR"},{"CLASSIFICATION_TYPE":"U","OBJECT_TYPE":"PAYLOAD","REF_FRAME":"TEME","ELEMENT_SET_NO":"999","NORAD_CAT_ID":"53833","APOAPSIS":"540.827","SEMIMAJOR_AXIS":"6917.887","MEAN_MOTION_DDOT":"0.0000000000000","EPOCH":"2022-11-30T22:00:00.999936","TIME_SYSTEM":"UTC","RA_OF_ASC_NODE":"267.5209","CENTER_NAME":"EARTH","REV_AT_EPOCH":"130","PERIOD":"95.438","MEAN_ANOMALY":"276.1143","OBJECT_NAME":"STARLINK-4771","INCLINATION":"53.2161","OBJECT_ID":"2022-114R","COUNTRY_CODE":"US","SITE":"AFETR","ECCENTRICITY":"0.00015530","LAUNCH_DATE":"2022-09-19","DECAY_DATE":null,"EPHEMERIS_TYPE":"0","MEAN_ELEMENT_THEORY":"SGP4","TLE_LINE2":"2 53833  53.2161 267.5209 0001553  66.1860 276.1143 15.08837771  1309","MEAN_MOTION_DOT":"0.00037448","BSTAR":"0.00235870000000","ARG_OF_PERICENTER":"66.1860","TLE_LINE1":"1 53833U 22114R   22334.91667824  .00037448  00000-0  23587-2 0  9992","GP_ID":"219217936","RCS_SIZE":"MEDIUM","FILE":"3676429","PERIAPSIS":"538.678","MEAN_MOTION":"15.08837771"}];
